[{"OBJECT_NAME":"STARLINK-32859","OBJECT_ID":"2025-022H","EPOCH":"2026-03-09T13:06:26.272224","MEAN_MOTION":15.30190276,"ECCENTRICITY":0.0001194,"INCLINATION":53.1584,"RA_OF_ASC_NODE":130.5997,"ARG_OF_PERICENTER":101.9679,"MEAN_ANOMALY":258.1455,"EPHEMERIS_TYPE":0,"CLASSIFICATION_TYPE":"U","NORAD_CAT_ID":62861,"ELEMENT_SET_NO":999,"REV_AT_EPOCH":6187,"BSTAR":0.0007065,"MEAN_MOTION_DOT":0.00020617,"MEAN_MOTION_DDOT":0},{"OBJECT_NAME":"SCS-01 J","OBJECT_ID":"2025-100J","EPOCH":"2026-03-09T22:31:25.904064","MEAN_MOTION":15.31338011,"ECCENTRICITY":0.00063909,"INCLINATION":97.3693,"RA_OF_ASC_NODE":145.4824,"ARG_OF_PERICENTER":272.025,"MEAN_ANOMALY":88.026,"EPHEMERIS_TYPE":0,"CLASSIFICATION_TYPE":"U","NORAD_CAT_ID":63990,"ELEMENT_SET_NO":999,"REV_AT_EPOCH":4563,"BSTAR":0.0011832888,"MEAN_MOTION_DOT":0.00035886,"MEAN_MOTION_DDOT":0}]
